[{"OBJECT_NAME":"HAWK-2B","OBJECT_ID":"2021-006CZ","EPOCH":"2026-03-09T16:13:51.664224","MEAN_MOTION":15.33301353,"ECCENTRICITY":0.00071021,"INCLINATION":97.2334,"RA_OF_ASC_NODE":114.114,"ARG_OF_PERICENTER":185.9063,"MEAN_ANOMALY":174.2098,"EPHEMERIS_TYPE":0,"CLASSIFICATION_TYPE":"U","NORAD_CAT_ID":47508,"ELEMENT_SET_NO":999,"REV_AT_EPOCH":28424,"BSTAR":0.00029650607,"MEAN_MOTION_DOT":9.474e-5,"MEAN_MOTION_DDOT":0},{"OBJECT_NAME":"STARLINK-34729","OBJECT_ID":"2025-190P","EPOCH":"2026-03-09T13:02:43.374912","MEAN_MOTION":15.30198271,"ECCENTRICITY":0.0001263,"INCLINATION":53.1595,"RA_OF_ASC_NODE":168.7964,"ARG_OF_PERICENTER":96.7631,"MEAN_ANOMALY":263.3513,"EPHEMERIS_TYPE":0,"CLASSIFICATION_TYPE":"U","NORAD_CAT_ID":65364,"ELEMENT_SET_NO":999,"REV_AT_EPOCH":3015,"BSTAR":0.00071698477,"MEAN_MOTION_DOT":0.00020935,"MEAN_MOTION_DDOT":0}]
