HAWK-2B                 
1 47508U 21006CZ  26068.67629241  .00009474  00000+0  29651-3 0  9991
2 47508  97.2334 114.1140 0007102 185.9063 174.2098 15.33301353284246
STARLINK-34729          
1 65364U 25190P   26068.54355758  .00020935  00000+0  71698-3 0  9997
2 65364  53.1595 168.7964 0001263  96.7631 263.3513 15.30198271 30158
